NORAD_CAT_ID,OBJECT_NAME,OBJECT_TYPE,EPOCH,MEAN_MOTION,ECCENTRICITY,INCLINATION,RA_OF_ASC_NODE,ARG_OF_PERICENTER,MEAN_ANOMALY,BSTAR,MEAN_MOTION_DOT,MEAN_MOTION_DDOT,TLE_LINE0,TLE_LINE1,TLE_LINE2,SEMIMAJOR_AXIS,PERIOD,APOGEE,PERIGEE,DECAYED
53025.0,STARLINK-4218,PAYLOAD,2023-10-04 18:27:09,15.08841828,0.0001335,53.215,105.66,88.2812,271.8333,0.00014109,1.958e-05,0.0,0 STARLINK-4218,1 53025U 22076AR  23277.76886486  .00001958  00000-0  14109-3 0  9997,2 53025  53.2150 105.6600 0001335  88.2812 271.8333 15.08841828 69560,6917.875,95.437,540.663,538.816,0.0
53025.0,STARLINK-4218,PAYLOAD,2023-10-04 21:37:56,15.08845526,0.000127,53.215,105.0663,92.583,267.5307,0.00018196,2.61e-05,0.0,0 STARLINK-4218,1 53025U 22076AR  23277.90134295  .00002610  00000-0  18196-3 0  9993,2 53025  53.2150 105.0663 0001270  92.5830 267.5307 15.08845526 69112,6917.863,95.437,540.607,538.85,0.0
53025.0,STARLINK-4218,PAYLOAD,2023-10-05 11:56:24,15.08837421,0.000149,53.2144,102.3914,89.7916,270.3247,8.2591e-05,1.027e-05,0.0,0 STARLINK-4218,1 53025U 22076AR  23278.49750791  .00001027  00000-0  82591-4 0  9995,2 53025  53.2144 102.3914 0001490  89.7916 270.3247 15.08837421 69201,6917.888,95.438,540.784,538.723,0.0
53025.0,STARLINK-4218,PAYLOAD,2023-10-05 19:53:20,15.08841042,0.0001445,53.2151,100.9044,88.8369,271.2788,7.2052e-05,8.59e-06,0.0,0 STARLINK-4218,1 53025U 22076AR  23278.82870783  .00000859  00000-0  72052-4 0  9999,2 53025  53.2151 100.9044 0001445  88.8369 271.2788 15.08841042 69720,6917.877,95.437,540.742,538.743,0.0
53025.0,STARLINK-4218,PAYLOAD,2023-10-06 11:47:12,15.08838099,0.0001466,53.2164,97.9324,93.3475,266.7685,0.00011455,1.535e-05,0.0,0 STARLINK-4218,1 53025U 22076AR  23279.49111178  .00001535  00000-0  11455-3 0  9990,2 53025  53.2164  97.9324 0001466  93.3475 266.7685 15.08838099 69354,6917.886,95.438,540.765,538.737,0.0
53025.0,STARLINK-4218,PAYLOAD,2023-10-06 19:44:07,15.0884408,0.0001306,53.2159,96.4445,96.0477,264.0664,6.7173e-05,7.81e-06,0.0,0 STARLINK-4218,1 53025U 22076AR  23279.82230898  .00000781  00000-0  67173-4 0  9999,2 53025  53.2159  96.4445 0001306  96.0477 264.0664 15.08844080 69402,6917.868,95.437,540.636,538.829,0.0
53025.0,STARLINK-4218,PAYLOAD,2023-10-07 05:16:26,15.08839734,0.0001234,53.2152,94.6597,98.164,261.9492,0.00010367,1.362e-05,0.0,0 STARLINK-4218,1 53025U 22076AR  23280.21975184  .00001362  00000-0  10367-3 0  9996,2 53025  53.2152  94.6597 0001234  98.1640 261.9492 15.08839734 69931,6917.881,95.438,540.6,538.893,0.0
53025.0,STARLINK-4218,PAYLOAD,2023-10-07 11:37:56,15.08912601,0.0002785,53.2169,93.4718,74.2541,285.8758,0.0011897,0.00018735,0.0,0 STARLINK-4218,1 53025U 22076AR  23280.48467754  .00018735  00000-0  11897-2 0  9994,2 53025  53.2169  93.4718 0002785  74.2541 285.8758 15.08912601 69506,6917.658,95.433,541.45,537.597,0.0
53025.0,STARLINK-4218,PAYLOAD,2023-10-07 17:59:31,15.08849814,0.0001457,53.2167,92.2823,80.9956,279.1201,0.00027124,4.033e-05,0.0,0 STARLINK-4218,1 53025U 22076AR  23280.74966877  .00004033  00000-0  27124-3 0  9990,2 53025  53.2167  92.2823 0001457  80.9956 279.1201 15.08849814 69545,6917.85,95.437,540.723,538.707,0.0
53025.0,STARLINK-4218,PAYLOAD,2023-10-08 05:07:13,15.08843517,0.0001362,53.2164,90.1997,86.9481,273.1667,0.00016148,2.283e-05,0.0,0 STARLINK-4218,1 53025U 22076AR  23281.21335137  .00002283  00000-0  16148-3 0  9991,2 53025  53.2164  90.1997 0001362  86.9481 273.1667 15.08843517 70080,6917.87,95.437,540.677,538.792,0.0
53025.0,STARLINK-4218,PAYLOAD,2023-10-08 21:01:04,15.08848811,0.0001363,53.2173,87.2249,98.1815,261.9332,5.7792e-05,6.32e-06,0.0,0 STARLINK-4218,1 53025U 22076AR  23281.87574732  .00000632  00000-0  57792-4 0  9996,2 53025  53.2173  87.2249 0001363  98.1815 261.9332 15.08848811 69718,6917.853,95.437,540.661,538.776,0.0
53025.0,STARLINK-4218,PAYLOAD,2023-10-09 11:19:33,15.08837153,0.0001453,53.2173,84.5459,107.4156,252.6995,8.6402e-05,1.087e-05,0.0,0 STARLINK-4218,1 53025U 22076AR  23282.47191361  .00001087  00000-0  86402-4 0  9991,2 53025  53.2173  84.5459 0001453 107.4156 252.6995 15.08837153 69802,6917.889,95.438,540.759,538.749,0.0
53025.0,STARLINK-4218,PAYLOAD,2023-10-09 17:41:05,15.08845012,0.0001337,53.2169,83.3588,93.7114,266.4031,7.1997e-05,8.58e-06,0.0,0 STARLINK-4218,1 53025U 22076AR  23282.73686939  .00000858  00000-0  71997-4 0  9998,2 53025  53.2169  83.3588 0001337  93.7114 266.4031 15.08845012 70314,6917.865,95.437,540.655,538.805,0.0
53025.0,STARLINK-4218,PAYLOAD,2023-10-10 11:10:20,15.08840775,0.0001334,53.2167,80.0878,95.4516,264.6629,9.2748e-05,1.189e-05,0.0,0 STARLINK-4218,1 53025U 22076AR  23283.46551151  .00001189  00000-0  92748-4 0  9991,2 53025  53.2167  80.0878 0001334  95.4516 264.6629 15.08840775 69952,6917.878,95.438,540.666,538.82,0.0
53025.0,STARLINK-4218,PAYLOAD,2023-10-10 17:31:52,15.08848414,0.000126,53.2151,78.8995,90.3191,269.7946,0.00019254,2.778e-05,0.0,0 STARLINK-4218,1 53025U 22076AR  23283.73046667  .00002778  00000-0  19254-3 0  9997,2 53025  53.2151  78.8995 0001260  90.3191 269.7946 15.08848414 69991,6917.855,95.437,540.591,538.848,0.0
53025.0,STARLINK-4218,PAYLOAD,2023-10-11 03:04:11,15.08840816,0.0001288,53.2162,77.1141,84.3029,275.811,-6.1954e-06,-3.86e-06,0.0,0 STARLINK-4218,1 53025U 22076AR  23284.12790931 -.00000386  00000-0 -61954-5 0  9992,2 53025  53.2162  77.1141 0001288  84.3029 275.8110 15.08840816 70521,6917.878,95.438,540.634,538.852,0.0
53025.0,STARLINK-4218,PAYLOAD,2023-10-11 11:01:07,15.08830683,0.0001444,53.2166,75.6298,84.8421,275.2735,-9.1925e-05,-1.75e-05,0.0,0 STARLINK-4218,1 53025U 22076AR  23284.45911733 -.00001750  00000-0 -91925-4 0  9999,2 53025  53.2166  75.6298 0001444  84.8421 275.2735 15.08830683 70579,6917.909,95.438,540.773,538.775,0.0
53025.0,STARLINK-4218,PAYLOAD,2023-10-11 14:11:54,15.08833496,0.0001488,53.2176,75.0342,91.4959,268.6203,1.7734e-05,-6e-08,0.0,0 STARLINK-4218,1 53025U 22076AR  23284.59160066 -.00000006  00000-0  17734-4 0  9997,2 53025  53.2176  75.0342 0001488  91.4959 268.6203 15.08833496 70124,6917.9,95.438,540.795,538.736,0.0
53025.0,STARLINK-4218,PAYLOAD,2023-10-12 02:54:58,15.0884304,0.0001418,53.2184,72.6563,94.1,266.0154,7.4639e-05,9e-06,0.0,0 STARLINK-4218,1 53025U 22076AR  23285.12151375  .00000900  00000-0  74639-4 0  9999,2 53025  53.2184  72.6563 0001418  94.1000 266.0154 15.08843040 70674,6917.871,95.437,540.717,538.755,0.0
53025.0,STARLINK-4218,PAYLOAD,2023-10-12 14:02:40,15.08841902,0.0001478,53.2181,70.574,89.8003,270.3159,7.8578e-05,9.63e-06,0.0,0 STARLINK-4218,1 53025U 22076AR  23285.58519411  .00000963  00000-0  78578-4 0  9993,2 53025  53.2181  70.5740 0001478  89.8003 270.3159 15.08841902 70279,6917.875,95.437,540.762,538.717,0.0
53025.0,STARLINK-4218,PAYLOAD,2023-10-12 17:13:26,15.08846234,0.0001464,53.2178,69.9787,88.7258,271.3902,0.00014357,1.998e-05,0.0,0 STARLINK-4218,1 53025U 22076AR  23285.71767135  .00001998  00000-0  14357-3 0  9999,2 53025  53.2178  69.9787 0001464  88.7258 271.3902 15.08846234 70295,6917.861,95.437,540.739,538.714,0.0
53025.0,STARLINK-4218,PAYLOAD,2023-10-13 09:07:18,15.08834939,0.0001509,53.2172,67.0058,90.1511,269.9654,0.00011006,1.464e-05,0.0,0 STARLINK-4218,1 53025U 22076AR  23286.38007847  .00001464  00000-0  11006-3 0  9996,2 53025  53.2172  67.0058 0001509  90.1511 269.9654 15.08834939 70867,6917.896,95.438,540.805,538.717,0.0
53025.0,STARLINK-4218,PAYLOAD,2023-10-13 13:53:28,15.08835458,0.0001386,53.2161,66.1128,87.6031,272.512,0.00012687,1.732e-05,0.0,0 STARLINK-4218,1 53025U 22076AR  23286.57879891  .00001732  00000-0  12687-3 0  9997,2 53025  53.2161  66.1128 0001386  87.6031 272.5120 15.08835458 70421,6917.894,95.438,540.718,538.8,0.0
53025.0,STARLINK-4218,PAYLOAD,2023-10-13 17:04:14,15.08842966,0.0001481,53.2154,65.5169,87.7993,272.3168,0.00016046,2.267e-05,0.0,0 STARLINK-4218,1 53025U 22076AR  23286.71127490  .00002267  00000-0  16046-3 0  9991,2 53025  53.2154  65.5169 0001481  87.7993 272.3168 15.08842966 70449,6917.871,95.437,540.761,538.712,0.0
53025.0,STARLINK-4218,PAYLOAD,2023-10-14 02:36:32,15.08846593,0.0001371,53.217,63.7327,86.7727,273.3422,0.00013829,1.914e-05,0.0,0 STARLINK-4218,1 53025U 22076AR  23287.10871194  .00001914  00000-0  13829-3 0  9996,2 53025  53.2170  63.7327 0001371  86.7727 273.3422 15.08846593 70977,6917.86,95.437,540.674,538.777,0.0
53025.0,STARLINK-4218,PAYLOAD,2023-10-14 13:44:14,15.08843154,0.0001437,53.2168,61.6541,85.5149,274.6007,0.00011087,1.477e-05,0.0,0 STARLINK-4218,1 53025U 22076AR  23287.57239408  .00001477  00000-0  11087-3 0  9991,2 53025  53.2168  61.6541 0001437  85.5149 274.6007 15.08843154 70576,6917.871,95.437,540.73,538.742,0.0
53025.0,STARLINK-4218,PAYLOAD,2023-10-14 15:19:37,15.08837988,0.0001515,53.2165,61.3569,88.625,271.4916,0.0002493,3.682e-05,0.0,0 STARLINK-4218,1 53025U 22076AR  23287.63863366  .00003682  00000-0  24930-3 0  9995,2 53025  53.2165  61.3569 0001515  88.6250 271.4916 15.08837988 71050,6917.887,95.438,540.8,538.703,0.0
53025.0,STARLINK-4218,PAYLOAD,2023-10-15 11:59:39,15.08831707,0.0001414,53.2176,57.4905,83.8724,276.2429,4.6673e-05,4.55e-06,0.0,0 STARLINK-4218,1 53025U 22076AR  23288.49976390  .00000455  00000-0  46673-4 0  9996,2 53025  53.2176  57.4905 0001414  83.8724 276.2429 15.08831707 71182,6917.906,95.438,540.749,538.793,0.0
53025.0,STARLINK-4218,PAYLOAD,2023-10-15 15:10:25,15.08832168,0.0001415,53.2175,56.8951,95.3204,264.795,4.5348e-05,4.34e-06,0.0,0 STARLINK-4218,1 53025U 22076AR  23288.63224347  .00000434  00000-0  45348-4 0  9995,2 53025  53.2175  56.8951 0001415  95.3204 264.7950 15.08832168 70730,6917.904,95.438,540.748,538.79,0.0
53025.0,STARLINK-4218,PAYLOAD,2023-10-16 08:39:40,15.0884056,0.0001909,53.2171,53.6236,85.0624,275.0586,5.505e-05,5.88e-06,0.0,0 STARLINK-4218,1 53025U 22076AR  23289.36088007  .00000588  00000-0  55050-4 0  9998,2 53025  53.2171  53.6236 0001909  85.0624 275.0586 15.08840560 71317,6917.879,95.438,541.064,538.423,0.0
